*******************************************************************************
 Revised: April 12, 2021             Mercury                            199 / 1

 PHYSICAL DATA (updated 2021-Apr-12):
  Vol. Mean Radius (km) =  2440+-1        Density (g cm^-3)     = 5.427
  Mass x10^23 (kg)      =     3.302       Volume (x10^10 km^3)  = 6.085  
  Sidereal rot. period  =    58.6463 d    Sid. rot. rate (rad/s)= 0.00000124001
  Mean solar day        =   175.9421 d    Core radius (km)      = ~1600 
  Geometric Albedo      =     0.106       Surface emissivity    = 0.77+-0.06
  GM (km^3/s^2)         = 22031.86855     Equatorial radius, Re = 2440 km
  GM 1-sigma (km^3/s^2) =                 Mass ratio (Sun/plnt) = 6023682
  Mom. of Inertia       =     0.33        Equ. gravity  m/s^2   = 3.701     
  Atmos. pressure (bar) = < 5x10^-15      Max. angular diam.    = 11.0"   
  Mean Temperature (K)  = 440             Visual mag. V(1,0)    = -0.42 
  Obliquity to orbit[1] =  2.11' +/- 0.1' Hill's sphere rad. Rp = 94.4 
  Sidereal orb. per.    =  0.2408467 y    Mean Orbit vel.  km/s = 47.362 
  Sidereal orb. per.    = 87.969257  d    Escape vel. km/s      =  4.435
                                 Perihelion  Aphelion    Mean
  Solar Constant (W/m^2)         14462       6278        9126
  Maximum Planetary IR (W/m^2)   12700       5500        8000
  Minimum Planetary IR (W/m^2)   6           6           6
*******************************************************************************


*******************************************************************************
Ephemeris / WWW_USER Fri Nov 26 16:48:23 2021 Pasadena, USA      / Horizons    
*******************************************************************************
Target body name: Mercury (199)                   {source: DE441}
Center body name: Earth (399)                     {source: DE441}
Center-site name: GEOCENTRIC
*******************************************************************************
Start time      : A.D. 1970-Jan-01 00:00:00.0000 UT      
Stop  time      : A.D. 2050-Jan-01 00:00:00.0000 UT      
Step-size       : 43200 minutes
*******************************************************************************
Target pole/equ : IAU_MERCURY                     {West-longitude positive}
Target radii    : 2439.7 x 2439.7 x 2439.7 km     {Equator, meridian, pole}    
Center geodetic : 0.00000000,0.00000000,0.0000000 {E-lon(deg),Lat(deg),Alt(km)}
Center cylindric: 0.00000000,0.00000000,0.0000000 {E-lon(deg),Dxy(km),Dz(km)}
Center pole/equ : ITRF93                          {East-longitude positive}
Center radii    : 6378.1 x 6378.1 x 6356.8 km     {Equator, meridian, pole}    
Target primary  : Sun
Vis. interferer : MOON (R_eq= 1737.400) km        {source: DE441}
Rel. light bend : Sun, EARTH                      {source: DE441}
Rel. lght bnd GM: 1.3271E+11, 3.9860E+05 km^3/s^2                              
Atmos refraction: NO (AIRLESS)
RA format       : DEG
Time format     : BOTH
EOP file        : eop.211125.p220216                                           
EOP coverage    : DATA-BASED 1962-JAN-20 TO 2021-NOV-25. PREDICTS-> 2022-FEB-15
Units conversion: 1 au= 149597870.700 km, c= 299792.458 km/s, 1 day= 86400.0 s 
Table cut-offs 1: Elevation (-90.0deg=NO ),Airmass (>38.000=NO), Daylight (NO )
Table cut-offs 2: Solar elongation (  0.0,180.0=NO ),Local Hour Angle( 0.0=NO )
Table cut-offs 3: RA/DEC angular rate (     0.0=NO )                           
*******************************************************************************
 Date__(UT)__HR:MN Date_________JDUT     N.Pole-RA  N.Pole-DC
*************************************************************
$$SOE
 2037-Jan-09 00:00 2465067.500000000     280.99756   61.41249
 2037-Feb-08 00:00 2465097.500000000     280.99753   61.41248
 2037-Mar-10 00:00 2465127.500000000     280.99750   61.41248
 2037-Apr-09 00:00 2465157.500000000     280.99748   61.41247
 2037-May-09 00:00 2465187.500000000     280.99745   61.41247
 2037-Jun-08 00:00 2465217.500000000     280.99742   61.41247
 2037-Jul-08 00:00 2465247.500000000     280.99739   61.41246
 2037-Aug-07 00:00 2465277.500000000     280.99737   61.41246
 2037-Sep-06 00:00 2465307.500000000     280.99734   61.41245
 2037-Oct-06 00:00 2465337.500000000     280.99731   61.41245
 2037-Nov-05 00:00 2465367.500000000     280.99729   61.41245
 2037-Dec-05 00:00 2465397.500000000     280.99726   61.41244
 2038-Jan-04 00:00 2465427.500000000     280.99723   61.41244
 2038-Feb-03 00:00 2465457.500000000     280.99721   61.41243
 2038-Mar-05 00:00 2465487.500000000     280.99718   61.41243
 2038-Apr-04 00:00 2465517.500000000     280.99715   61.41243
 2038-May-04 00:00 2465547.500000000     280.99713   61.41242
 2038-Jun-03 00:00 2465577.500000000     280.99710   61.41242
 2038-Jul-03 00:00 2465607.500000000     280.99707   61.41241
 2038-Aug-02 00:00 2465637.500000000     280.99704   61.41241
 2038-Sep-01 00:00 2465667.500000000     280.99702   61.41241
 2038-Oct-01 00:00 2465697.500000000     280.99699   61.41240
 2038-Oct-31 00:00 2465727.500000000     280.99696   61.41240
 2038-Nov-30 00:00 2465757.500000000     280.99694   61.41239
 2038-Dec-30 00:00 2465787.500000000     280.99691   61.41239
 2039-Jan-29 00:00 2465817.500000000     280.99688   61.41239
 2039-Feb-28 00:00 2465847.500000000     280.99686   61.41238
 2039-Mar-30 00:00 2465877.500000000     280.99683   61.41238
 2039-Apr-29 00:00 2465907.500000000     280.99680   61.41237
 2039-May-29 00:00 2465937.500000000     280.99678   61.41237
 2039-Jun-28 00:00 2465967.500000000     280.99675   61.41237
 2039-Jul-28 00:00 2465997.500000000     280.99672   61.41236
 2039-Aug-27 00:00 2466027.500000000     280.99669   61.41236
 2039-Sep-26 00:00 2466057.500000000     280.99667   61.41235
 2039-Oct-26 00:00 2466087.500000000     280.99664   61.41235
 2039-Nov-25 00:00 2466117.500000000     280.99661   61.41235
 2039-Dec-25 00:00 2466147.500000000     280.99659   61.41234
 2040-Jan-24 00:00 2466177.500000000     280.99656   61.41234
 2040-Feb-23 00:00 2466207.500000000     280.99653   61.41233
 2040-Mar-24 00:00 2466237.500000000     280.99651   61.41233
 2040-Apr-23 00:00 2466267.500000000     280.99648   61.41232
 2040-May-23 00:00 2466297.500000000     280.99645   61.41232
 2040-Jun-22 00:00 2466327.500000000     280.99643   61.41232
 2040-Jul-22 00:00 2466357.500000000     280.99640   61.41231
 2040-Aug-21 00:00 2466387.500000000     280.99637   61.41231
 2040-Sep-20 00:00 2466417.500000000     280.99634   61.41230
 2040-Oct-20 00:00 2466447.500000000     280.99632   61.41230
 2040-Nov-19 00:00 2466477.500000000     280.99629   61.41230
 2040-Dec-19 00:00 2466507.500000000     280.99626   61.41229
 2041-Jan-18 00:00 2466537.500000000     280.99624   61.41229
 2041-Feb-17 00:00 2466567.500000000     280.99621   61.41228
 2041-Mar-19 00:00 2466597.500000000     280.99618   61.41228
 2041-Apr-18 00:00 2466627.500000000     280.99616   61.41228
 2041-May-18 00:00 2466657.500000000     280.99613   61.41227
 2041-Jun-17 00:00 2466687.500000000     280.99610   61.41227
 2041-Jul-17 00:00 2466717.500000000     280.99607   61.41226
 2041-Aug-16 00:00 2466747.500000000     280.99605   61.41226
 2041-Sep-15 00:00 2466777.500000000     280.99602   61.41226
 2041-Oct-15 00:00 2466807.500000000     280.99599   61.41225
 2041-Nov-14 00:00 2466837.500000000     280.99597   61.41225
 2041-Dec-14 00:00 2466867.500000000     280.99594   61.41224
 2042-Jan-13 00:00 2466897.500000000     280.99591   61.41224
 2042-Feb-12 00:00 2466927.500000000     280.99589   61.41224
 2042-Mar-14 00:00 2466957.500000000     280.99586   61.41223
 2042-Apr-13 00:00 2466987.500000000     280.99583   61.41223
 2042-May-13 00:00 2467017.500000000     280.99581   61.41222
 2042-Jun-12 00:00 2467047.500000000     280.99578   61.41222
 2042-Jul-12 00:00 2467077.500000000     280.99575   61.41222
 2042-Aug-11 00:00 2467107.500000000     280.99572   61.41221
 2042-Sep-10 00:00 2467137.500000000     280.99570   61.41221
 2042-Oct-10 00:00 2467167.500000000     280.99567   61.41220
 2042-Nov-09 00:00 2467197.500000000     280.99564   61.41220
 2042-Dec-09 00:00 2467227.500000000     280.99562   61.41220
 2043-Jan-08 00:00 2467257.500000000     280.99559   61.41219
 2043-Feb-07 00:00 2467287.500000000     280.99556   61.41219
 2043-Mar-09 00:00 2467317.500000000     280.99554   61.41218
 2043-Apr-08 00:00 2467347.500000000     280.99551   61.41218
 2043-May-08 00:00 2467377.500000000     280.99548   61.41218
 2043-Jun-07 00:00 2467407.500000000     280.99546   61.41217
 2043-Jul-07 00:00 2467437.500000000     280.99543   61.41217
 2043-Aug-06 00:00 2467467.500000000     280.99540   61.41216
 2043-Sep-05 00:00 2467497.500000000     280.99537   61.41216
 2043-Oct-05 00:00 2467527.500000000     280.99535   61.41216
 2043-Nov-04 00:00 2467557.500000000     280.99532   61.41215
 2043-Dec-04 00:00 2467587.500000000     280.99529   61.41215
 2044-Jan-03 00:00 2467617.500000000     280.99527   61.41214
 2044-Feb-02 00:00 2467647.500000000     280.99524   61.41214
 2044-Mar-03 00:00 2467677.500000000     280.99521   61.41214
 2044-Apr-02 00:00 2467707.500000000     280.99519   61.41213
 2044-May-02 00:00 2467737.500000000     280.99516   61.41213
 2044-Jun-01 00:00 2467767.500000000     280.99513   61.41212
 2044-Jul-01 00:00 2467797.500000000     280.99511   61.41212
 2044-Jul-31 00:00 2467827.500000000     280.99508   61.41212
 2044-Aug-30 00:00 2467857.500000000     280.99505   61.41211
 2044-Sep-29 00:00 2467887.500000000     280.99502   61.41211
 2044-Oct-29 00:00 2467917.500000000     280.99500   61.41210
 2044-Nov-28 00:00 2467947.500000000     280.99497   61.41210
 2044-Dec-28 00:00 2467977.500000000     280.99494   61.41210
 2045-Jan-27 00:00 2468007.500000000     280.99492   61.41209
 2045-Feb-26 00:00 2468037.500000000     280.99489   61.41209
 2045-Mar-28 00:00 2468067.500000000     280.99486   61.41208
 2045-Apr-27 00:00 2468097.500000000     280.99484   61.41208
